IRIDIUM 33 DEB          
1 36495U 97051WM  17346.27798979  .00009414  00000-0  10050-2 0  9994
2 36495  86.3982 187.3815 0010958 102.9608 257.2843 14.88667837425478
